MALLIGYONG-1            
1 58400U 23179A   24005.92969118  .00004910  00000+0  21876-3 0  9995
2 58400  97.4254 255.1095 0017318 115.7635 244.5390 15.21768588  6896
